DEORBITSAIL
1 40719U 15032E   16168.67906316  .00000808  00000-0  12591-3 0  9999
2 40719  98.0176  60.3158 0015280 236.5844 123.3904 14.75552198 50414
NUDT-PHONESAT
1 40900U 15049B   16168.77740095  .00003982  00000-0  20499-3 0  9992
2 40900  97.4447 176.5099 0016968  60.7043 351.5642 15.16864686 41010
XW-2D
1 40907U 15049J   16168.33572438  .00001491  00000-0  86309-4 0  9991
2 40907  97.4490 175.3086 0016445  42.6316  82.1792 15.13640976 40877
XW-2F
1 40910U 15049M   16168.68685064  .00002452  00000-0  13779-3 0  9991
2 40910  97.4525 175.8378 0017624  40.3451  11.5718 15.14101562 40827
XW-2B
1 40911U 15049N   16168.60361104  .00001371  00000-0  79715-4 0  9992
2 40911  97.4537 175.7428 0016256  42.0104 104.4086 15.13624292 40818
DCBB
1 40912U 15049P   16168.69552091  .00002733  00000-0  14509-3 0  9991
2 40912  97.4527 176.6143 0017633  37.8710  52.2651 15.16044579 40889
TW-1C
1 40926U 15051B   16168.74320740  .00009473  00000-0  26715-3 0  9999
2 40926  97.2755 205.6648 0015646  55.8943  37.0628 15.36497674 40692
TW-1A
1 40928U 15051D   16168.81794756  .00004485  00000-0  14136-3 0  9993
2 40928  97.2701 204.9097 0015930  70.7452  15.8915 15.33283923 40669
IO-86
1 40931U 15052B   16168.40358851  .00000628  00000-0 -14962-5 0  9990
2 40931   5.9989 320.6849 0013067 107.9615 252.1922 14.76463418 38814
GomX-3
1 40949U 98067HA  16168.86445308  .00042480  00000-0  23398-3 0  9992
2 40949  51.6317  36.0253 0003663 202.9894 157.0944 15.79243122 40013
LQSat
1 40958U 15057A   16168.76787641  .00000115  00000-0  25754-4 0  9996
2 40958  98.0140 243.6679 0018785 151.6635 208.5603 14.72872404 37321
AO-85
1 40967U 15058D   16168.17336211  .00000762  00000-0  98997-4 0 01624
2 40967 064.7771 248.9087 0204274 205.7385 153.3465 14.75034673023122
ATHENOXAT-1
1 41168U 15077C   16168.71326179  .00002774  00000-0  12597-3 0  9995
2 41168  14.9852 316.2199 0012869 354.2922 115.2460 15.09977940 27688
ChubuSat-2
1 41338U 16012B   16168.65390074  .00000579  00000-0  39271-4 0  9992
2 41338  31.0047 273.2197 0013931  41.5388 318.6305 14.99395681 18070
ChubuSat-3
1 41339U 16012C   16168.70163279  .00000574  00000-0  38685-4 0  9997
2 41339  31.0113 272.6783 0013729  47.5133 312.6658 14.99624917 18058
Horyu-4
1 41340U 16012D   16167.67519951  .00000894  00000-0  63339-4 0  9995
2 41340  31.0071 278.7529 0014341  42.4231 317.7511 15.00033055 17921
OUFTI-1
1 41458U 16025C   16167.88438511  .00004343  00000-0  24543-3 0  9990
2 41458 098.2114 178.3004 0178936 072.2477 289.8184 15.01049625007599
e-st at r-II
1 41459U 16025D   16168.48403334  .00004220  00000-0  23869-3 0  9997
2 41459  98.2120 178.9354 0178895  70.2748 291.7681 15.01049765  7672
AAUSAT4
1 41460U 16025E   16168.68150261  .00005972  00000-0  33503-3 0  9990
2 41460  98.2108 179.1502 0178155  69.6914 292.3352 15.01209479  7700
MinXSS
1 41474U 98067HU  16168.86714326  .00031225  00000-0  43069-3 0  9997
2 41474  51.6446  59.2870 0003250 123.3837 312.1221 15.56912270  4886
CADRE
1 41475U 98067HV  16168.72464260  .00039415  00000-0  52730-3 0  9996
2 41475  51.6438  59.9167 0003469 147.4321 248.2962 15.57617161  4862
STMSat 1
1 41476U 98067HW  16168.73140451  .00027134  00000-0  37487-3 0  9998
2 41476  51.6439  59.9616 0003081 127.5605 269.6467 15.56947262  4771
NODES 1
1 41477U 98067HX  16168.87101373  .00019918  00000-0  28151-3 0  9993
2 41477  51.6433  59.3130 0003555 133.2735 302.7269 15.56529755  4799
NODES 2
1 41478U 98067HY  16168.87149064  .00019450  00000-0  27540-3 0  9995
2 41478  51.6444  59.3148 0003240 124.3471 311.6752 15.56498549  4792
NuSat1-LUSEX
1 41557U 16033B   16168.78442459  .00002714  00000-0  11048-3 0  9991
2 41557  97.4984 241.9261 0013650 210.1098 267.7278 15.25306922  2697
NuSat2
1 41558U 16033C   16168.78570334  .00002681  00000-0  10965-3 0  9996
2 41558  97.5004 241.9288 0013189 207.9313 267.9782 15.25166000  2695
